{"fetched_at":"2026-03-29T02:12:04Z","count":15717,"tles":[{"name":"KUIPER-00275","line1":"1 67793U 26030AF  26087.39621639  .00030940  00000+0  89643-3 0  9993","line2":"2 67793  51.8852 129.2171 0010426 110.6861 249.5243 15.35247943  7966","category":"Other"}]}