{
  "norad_id": 67793,
  "name": "KUIPER-00275",
  "history": [
    {
      "epoch": "2026-03-28T09:30:33.096096",
      "apogee_km": 467.31411050486895,
      "perigee_km": 453.05415944210836,
      "latitude_deg": 51.41448656473761,
      "longitude_deg": -82.66322655999102,
      "semi_major_axis_km": 6838.321134973488,
      "eccentricity": 0.00104265,
      "inclination_deg": 51.8852,
      "raan_deg": 129.2171,
      "arg_perigee_deg": 110.6861,
      "mean_anomaly_deg": 249.5243,
      "mean_motion_rev_day": 15.35247943
    }
  ]
}